NORAD_CAT_ID,OBJECT_NAME,OBJECT_TYPE,EPOCH,MEAN_MOTION,ECCENTRICITY,INCLINATION,RA_OF_ASC_NODE,ARG_OF_PERICENTER,MEAN_ANOMALY,BSTAR,MEAN_MOTION_DOT,MEAN_MOTION_DDOT,TLE_LINE0,TLE_LINE1,TLE_LINE2,SEMIMAJOR_AXIS,PERIOD,APOGEE,PERIGEE,DECAYED
56811.0,STARLINK-6063,PAYLOAD,2023-07-08 17:19:12,15.69926491,0.0003672,69.9991,305.1864,270.8613,89.2162,1.8786e-05,2.047e-05,0.0,0 STARLINK-6063,1 56811U 23078AW  23189.72166779  .00002047  00000-0  18786-4 0  9996,2 56811  69.9991 305.1864 0003672 270.8613  89.2162 15.69926491  6341,6737.244,91.724,361.583,356.635,0.0
56811.0,STARLINK-6063,PAYLOAD,2023-07-10 09:04:45,15.69923322,0.0003595,69.9979,300.5284,267.5171,92.5613,2.4705e-05,2.759e-05,0.0,0 STARLINK-6063,1 56811U 23078AW  23191.37830382  .00002759  00000-0  24705-4 0  9996,2 56811  69.9979 300.5284 0003595 267.5171  92.5613 15.69923322  6605,6737.253,91.724,361.54,356.696,0.0
56811.0,STARLINK-6063,PAYLOAD,2023-07-11 09:32:47,15.69924317,0.0003436,69.9961,297.6619,266.0542,94.0261,9.389e-06,9.16e-06,0.0,0 STARLINK-6063,1 56811U 23078AW  23192.39777063  .00000916  00000-0  93890-5 0  9990,2 56811  69.9961 297.6619 0003436 266.0542  94.0261 15.69924317  6762,6737.251,91.724,361.43,356.801,0.0
56811.0,STARLINK-6063,PAYLOAD,2023-07-12 16:07:49,15.69929317,0.0003414,69.9963,294.0785,269.7996,90.2809,1.0808e-05,1.087e-05,0.0,0 STARLINK-6063,1 56811U 23078AW  23193.67210080  .00001087  00000-0  10808-4 0  9990,2 56811  69.9963 294.0785 0003414 269.7996  90.2809 15.69929317  6961,6737.236,91.724,361.401,356.801,0.0
56811.0,STARLINK-6063,PAYLOAD,2023-07-13 16:35:52,15.69922706,0.000288,69.9971,291.2142,267.0854,93.0013,7.6943e-06,7.13e-06,0.0,0 STARLINK-6063,1 56811U 23078AW  23194.69157631  .00000713  00000-0  76943-5 0  9993,2 56811  69.9971 291.2142 0002880 267.0854  93.0013 15.69922706  7128,6737.255,91.724,361.06,357.18,0.0
56811.0,STARLINK-6063,PAYLOAD,2023-07-14 15:32:08,15.69929085,0.0003035,69.9964,288.5257,268.3529,91.7319,2.1364e-05,2.357e-05,0.0,0 STARLINK-6063,1 56811U 23078AW  23195.64731918  .00002357  00000-0  21364-4 0  9997,2 56811  69.9964 288.5257 0003035 268.3529  91.7319 15.69929085  7279,6737.237,91.724,361.147,357.057,0.0
56811.0,STARLINK-6063,PAYLOAD,2023-07-14 23:10:55,15.69914246,0.0003054,69.9969,287.63,273.0072,87.0774,3.8275e-06,2.47e-06,0.0,0 STARLINK-6063,1 56811U 23078AW  23195.96591648  .00000247  00000-0  38275-5 0  9992,2 56811  69.9969 287.6300 0003054 273.0072  87.0774 15.69914246  7322,6737.279,91.725,361.202,357.087,0.0
56811.0,STARLINK-6063,PAYLOAD,2023-07-15 09:53:10,15.6992499,0.0003468,69.9978,286.3751,272.982,87.0979,2.3242e-05,2.583e-05,0.0,0 STARLINK-6063,1 56811U 23078AW  23196.41192564  .00002583  00000-0  23242-4 0  9999,2 56811  69.9978 286.3751 0003468 272.9820  87.0979 15.69924990  7397,6737.249,91.724,361.45,356.777,0.0
56811.0,STARLINK-6063,PAYLOAD,2023-07-15 17:31:56,15.69909003,0.0002988,69.9978,285.4801,282.2972,77.7889,-1.9743e-05,-2.584e-05,0.0,0 STARLINK-6063,1 56811U 23078AW  23196.73051775 -.00002584  00000-0 -19743-4 0  9996,2 56811  69.9978 285.4801 0002988 282.2972  77.7889 15.69909003  7441,6737.294,91.725,361.172,357.146,0.0
56811.0,STARLINK-6063,PAYLOAD,2023-07-15 23:38:56,15.69915063,0.000344,69.9982,284.7624,274.2611,85.8191,-1.8428e-05,-2.427e-05,0.0,0 STARLINK-6063,1 56811U 23078AW  23196.98537862 -.00002427  00000-0 -18428-4 0  9994,2 56811  69.9982 284.7624 0003440 274.2611  85.8191 15.69915063  7489,6737.277,91.725,361.46,356.824,0.0
56811.0,STARLINK-6063,PAYLOAD,2023-07-16 07:17:42,15.69925342,0.0003704,69.9976,283.8669,277.0846,82.9928,9.1961e-06,8.93e-06,0.0,0 STARLINK-6063,1 56811U 23078AW  23197.30395877  .00000893  00000-0  91961-5 0  9996,2 56811  69.9976 283.8669 0003704 277.0846  82.9928 15.69925342  7538,6737.248,91.724,361.608,356.617,0.0
56811.0,STARLINK-6063,PAYLOAD,2023-07-16 14:56:27,15.69936832,0.0003664,69.9982,282.971,278.2979,81.7801,8.1099e-05,9.555e-05,0.0,0 STARLINK-6063,1 56811U 23078AW  23197.62254054  .00009555  00000-0  81099-4 0  9996,2 56811  69.9982 282.9710 0003664 278.2979  81.7801 15.69936832  7585,6737.215,91.723,361.548,356.611,0.0
56811.0,STARLINK-6063,PAYLOAD,2023-07-17 07:45:44,15.6993592,0.0003218,69.999,281.001,292.9343,67.1513,7.6387e-05,8.986e-05,0.0,0 STARLINK-6063,1 56811U 23078AW  23198.32342700  .00008986  00000-0  76387-4 0  9991,2 56811  69.9990 281.0010 0003218 292.9343  67.1513 15.69935920  7697,6737.217,91.723,361.25,356.914,0.0
56811.0,STARLINK-6063,PAYLOAD,2023-07-17 16:56:15,15.69923235,0.0003157,69.9997,279.928,277.1927,82.891,4.1931e-05,4.832e-05,0.0,0 STARLINK-6063,1 56811U 23078AW  23198.70572953  .00004832  00000-0  41931-4 0  9991,2 56811  69.9997 279.9280 0003157 277.1927  82.8910 15.69923235  7752,6737.254,91.724,361.246,356.992,0.0
56811.0,STARLINK-6063,PAYLOAD,2023-07-18 17:24:16,15.69929872,0.0003263,69.9985,277.0584,275.6224,84.46,7.9678e-05,9.381e-05,0.0,0 STARLINK-6063,1 56811U 23078AW  23199.72519576  .00009381  00000-0  79678-4 0  9999,2 56811  69.9985 277.0584 0003263 275.6224  84.4600 15.69929872  7911,6737.235,91.724,361.298,356.901,0.0
56811.0,STARLINK-6063,PAYLOAD,2023-07-19 08:41:48,15.69922414,0.0003023,70.0004,275.2688,277.4096,82.6756,3.0041e-05,3.401e-05,0.0,0 STARLINK-6063,1 56811U 23078AW  23200.36236742  .00003401  00000-0  30041-4 0  9991,2 56811  70.0004 275.2688 0003023 277.4096  82.6756 15.69922414  8011,6737.256,91.724,361.158,357.084,0.0
56811.0,STARLINK-6063,PAYLOAD,2023-07-20 16:48:35,15.69945114,0.0003616,69.9982,271.5075,272.2921,87.786,9.7767e-05,0.0001157,0.0,0 STARLINK-6063,1 56811U 23078AW  23201.70041203  .00011570  00000-0  97767-4 0  9990,2 56811  69.9982 271.5075 0003616 272.2921  87.7860 15.69945114  8227,6737.191,91.723,361.492,356.62,0.0
56811.0,STARLINK-6063,PAYLOAD,2023-07-21 17:16:37,15.69930939,0.0003515,69.9981,268.6386,265.6637,94.4157,5.2227e-05,6.073e-05,0.0,0 STARLINK-6063,1 56811U 23078AW  23202.71988126  .00006073  00000-0  52227-4 0  9990,2 56811  69.9981 268.6386 0003515 265.6637  94.4157 15.69930939  8386,6737.232,91.724,361.465,356.728,0.0
56811.0,STARLINK-6063,PAYLOAD,2023-07-24 03:23:12,15.6993872,0.0003174,69.9972,261.8307,265.7649,94.3184,6.306e-05,7.381e-05,0.0,0 STARLINK-6063,1 56811U 23078AW  23205.14111662  .00007381  00000-0  63060-4 0  9993,2 56811  69.9972 261.8307 0003174 265.7649  94.3184 15.69938720  8508,6737.209,91.723,361.213,356.936,0.0
56811.0,STARLINK-6063,PAYLOAD,2023-07-25 11:30:00,15.69924505,0.0003714,69.9981,258.0694,273.9195,86.1576,2.6413e-05,2.964e-05,0.0,0 STARLINK-6063,1 56811U 23078AW  23206.47917120  .00002964  00000-0  26413-4 0  9996,2 56811  69.9981 258.0694 0003714 273.9195  86.1576 15.69924505  8715,6737.25,91.724,361.617,356.613,0.0
56811.0,STARLINK-6063,PAYLOAD,2023-07-26 05:51:01,15.69928585,0.0003884,69.9976,255.92,274.4101,85.6651,2.2368e-05,2.478e-05,0.0,0 STARLINK-6063,1 56811U 23078AW  23207.24376865  .00002478  00000-0  22368-4 0  9992,2 56811  69.9976 255.9200 0003884 274.4101  85.6651 15.69928585  8832,6737.238,91.724,361.72,356.487,0.0
56811.0,STARLINK-6063,PAYLOAD,2023-07-26 21:08:32,15.69932541,0.0003669,69.9979,254.1278,270.2009,89.8766,2.2804e-05,2.531e-05,0.0,0 STARLINK-6063,1 56811U 23078AW  23207.88093193  .00002531  00000-0  22804-4 0  9997,2 56811  69.9979 254.1278 0003669 270.2009  89.8766 15.69932541  8934,6737.227,91.724,361.564,356.62,0.0
56811.0,STARLINK-6063,PAYLOAD,2023-07-27 09:22:34,15.69914695,0.0003354,69.9978,252.6944,268.5035,91.5776,-9.8255e-06,-1.394e-05,0.0,0 STARLINK-6063,1 56811U 23078AW  23208.39067690 -.00001394  00000-0 -98255-5 0  9999,2 56811  69.9978 252.6944 0003354 268.5035  91.5776 15.69914695  9275,6737.278,91.725,361.403,356.883,0.0
56811.0,STARLINK-6063,PAYLOAD,2023-07-27 20:04:49,15.69926274,0.0003287,69.9977,251.4407,269.9243,90.1576,1.7588e-05,1.903e-05,0.0,0 STARLINK-6063,1 56811U 23078AW  23208.83668961  .00001903  00000-0  17588-4 0  9999,2 56811  69.9977 251.4407 0003287 269.9243  90.1576 15.69926274  9084,6737.245,91.724,361.324,356.895,0.0
56811.0,STARLINK-6063,PAYLOAD,2023-07-28 12:54:06,15.69929187,0.0003278,69.9986,249.4699,268.016,92.066,2.7089e-05,3.046e-05,0.0,0 STARLINK-6063,1 56811U 23078AW  23209.53757203  .00003046  00000-0  27089-4 0  9992,2 56811  69.9986 249.4699 0003278 268.0160  92.0660 15.69929187  9195,6737.237,91.724,361.31,356.893,0.0
56811.0,STARLINK-6063,PAYLOAD,2023-07-28 15:57:36,15.6992405,0.000383,69.9993,249.1137,285.9324,74.145,2.5632e-05,2.87e-05,0.0,0 STARLINK-6063,1 56811U 23078AW  23209.66500849  .00002870  00000-0  25632-4 0  9994,2 56811  69.9993 249.1137 0003830 285.9324  74.1450 15.69924050  9474,6737.251,91.724,361.697,356.536,0.0
56811.0,STARLINK-6063,PAYLOAD,2023-07-29 19:29:08,15.69925584,0.0004107,69.9995,245.8875,267.1421,92.9305,3.0367e-06,1.52e-06,0.0,0 STARLINK-6063,1 56811U 23078AW  23210.81190285  .00000152  00000-0  30367-5 0  9995,2 56811  69.9995 245.8875 0004107 267.1421  92.9305 15.69925584  9656,6737.247,91.724,361.879,356.345,0.0
56811.0,STARLINK-6063,PAYLOAD,2023-07-31 02:04:11,15.69931288,0.000333,69.9966,242.3023,262.0426,98.0392,2.0192e-05,2.216e-05,0.0,0 STARLINK-6063,1 56811U 23078AW  23212.08623922  .00002216  00000-0  20192-4 0  9992,2 56811  69.9966 242.3023 0003330 262.0426  98.0392 15.69931288  9850,6737.231,91.724,361.339,356.852,0.0
56811.0,STARLINK-6063,PAYLOAD,2023-07-31 09:42:52,15.7006289,0.00019,69.9997,241.4104,275.9103,84.1876,0.00034994,0.00042312,0.0,0 STARLINK-6063,1 56811U 23078AW  23212.40477171  .00042312  00000-0  34994-3 0  9996,2 56811  69.9997 241.4104 0001900 275.9103  84.1876 15.70062890  9905,6736.854,91.716,359.999,357.439,0.0
56811.0,STARLINK-6063,PAYLOAD,2023-07-31 11:14:34,15.7014327,0.0003085,69.999,241.2298,268.1306,91.9536,0.00053607,0.00065337,0.0,0 STARLINK-6063,1 56811U 23078AW  23212.46845015  .00065337  00000-0  53607-3 0  9992,2 56811  69.9990 241.2298 0003085 268.1306  91.9536 15.70143270  9917,6736.624,91.711,360.567,356.411,0.0
